[{"OBJECT_NAME":"STARLINK-30925","OBJECT_ID":"2023-180E","EPOCH":"2026-03-08T09:03:26.187552","MEAN_MOTION":15.27588974,"ECCENTRICITY":0.00013472,"INCLINATION":43.0035,"RA_OF_ASC_NODE":60.1034,"ARG_OF_PERICENTER":257.0086,"MEAN_ANOMALY":103.0615,"EPHEMERIS_TYPE":0,"CLASSIFICATION_TYPE":"U","NORAD_CAT_ID":58406,"ELEMENT_SET_NO":999,"REV_AT_EPOCH":12730,"BSTAR":8.5748329e-5,"MEAN_MOTION_DOT":2.099e-5,"MEAN_MOTION_DDOT":0},{"OBJECT_NAME":"CZ-6A DEB","OBJECT_ID":"2024-140UQ","EPOCH":"2026-03-09T14:36:35.114400","MEAN_MOTION":15.29987293,"ECCENTRICITY":0.0094347,"INCLINATION":89.0483,"RA_OF_ASC_NODE":279.5661,"ARG_OF_PERICENTER":66.0307,"MEAN_ANOMALY":295.0787,"EPHEMERIS_TYPE":0,"CLASSIFICATION_TYPE":"U","NORAD_CAT_ID":61327,"ELEMENT_SET_NO":999,"REV_AT_EPOCH":8299,"BSTAR":0.0015211,"MEAN_MOTION_DOT":0.00050856,"MEAN_MOTION_DDOT":0}]
